FORMOSAT 7-3            
1 44343U 19036E   26068.82630502  .00006445  00000+0  37650-3 0  9997
2 44343  23.9981 141.9797 0001061 150.4425 209.6139 15.08933962368215
STARLINK-5155           
1 54170U 22141P   26068.20454931  .00002287  00000+0  16175-3 0  9998
2 54170  53.2191   6.3494 0001256  90.9900 269.1236 15.08831621185780
